#cP2024  2  8  6  0  0.00000000     577 d+D   IGS20 EXT AIUB
## 2300 367200.00000000   300.00000000 60348 0.2500000000000
+   77   G01G02G03G04G05G06G07G08G09G10G11G12G13G14G15G16G17
+        G18G19G20G21G22G23G24G25G26G27G28G29G30G31G32R01R02
+        R03R04R05R07R08R09R11R12R13R14R15R16R17R18R19R20R21
+        R22R24E02E03E04E05E07E08E09E10E11E12E13E14E15E18E19
+        E21E25E26E27E30E31E33E34E36  0  0  0  0  0  0  0  0
++         8  8  7  6  7  6  7  6  5  6  7  7  6  6  7  7  7
++         7  8  7  7  7  7  6  6  6  6  6  7  5  7  6  9  7
++         8  8  8  8  8  6  7  6  7  6  7  7  8  7  8  9  8
++         7  8  5  7  6  7  6  7  7  7  6  6  7  7  7  7  6
++         5  6  7  6  5  7  7  7  8  0  0  0  0  0  0  0  0
%c M  cc GPS ccc cccc cccc cccc cccc ccccc ccccc ccccc ccccc
%c cc cc ccc ccc cccc cccc cccc cccc ccccc ccccc ccccc ccccc
%f  1.2500000  1.025000000  0.00000000000  0.000000000000000
%f  0.0000000  0.000000000  0.00000000000  0.000000000000000
%i    0    0    0    0      0      0      0      0         0
%i    0    0    0    0      0      0      0      0         0
/* Center for Orbit Determination in Europe (CODE)          
/* Ultra-rapid GRE orbits starting year-day 24039 06 hour   
/* Observed/predicted: 25/23 hours (data used up to 040G)   
/* PCV:IGS20      OL/AL:FES2014b NONE     YN ORB:CoN CLK:BRD
*  2024  2  8  9 55  0.00000000
PG01 -13027.863738   7165.231598  21635.992789    168.738464
PG02 -15957.244000   -846.860598  21752.709671   -488.680624
PG03 -21840.412933   9688.012899  11334.835845    179.690191
PG04 -24011.695787    -51.149532 -11484.150677    286.495141
PG05  17998.946370   1049.837921 -19704.242195   -161.010347
PG06   5837.717254  25839.069385   -648.632473    415.182848
PG07  -7238.853369  19478.610178 -15775.494755    -56.935072
PG08 -26113.504933  -5198.965085   2891.482643   -166.010496
PG09 -14763.213082  10151.156041 -19708.922768     85.204398
PG10   5552.431787 -20051.332300  16520.587764    -72.484413
PG11  11827.220751  20667.836389 -11788.893248   -568.643464
PG12  22527.349268  -7916.337300  11272.304347   -475.918188
PG13  22330.354026  13986.748077  -4389.052365    623.589979
PG14  -9385.367211  20883.295214  13325.530035    320.225369
PG15  26416.892923   2555.248742   2152.207763    125.537521
PG16 -13884.026214  -8221.982277 -21500.190855   -367.198704
PG17  -1323.141284  15541.284119  21907.359038    717.636559
PG18   6565.014462 -20455.489337 -15480.763095   -550.915789
PG19   9231.679602  17354.577419  17842.383915    437.758042
PG20   9028.527764  13080.904505 -21239.246793    388.294884
PG21 -16923.007637  -7338.721736  19928.348767    135.680445
PG22  -2872.081884  18871.425087  19017.052133     34.673506
PG23  15624.868392 -20572.148510   5749.800601    151.780688
PG24  16685.616398   3345.656558  20072.853254   -428.225305
PG25  20039.193228 -17049.239033   1953.882437    487.935193
PG26  -5503.446997 -16250.995704 -20337.384292    192.400930
PG27 -21571.079763 -13219.713636  -9050.974084     -2.160977
PG28  -5106.845239 -25972.526020   2195.245532   -124.128735
PG29  16757.671797  -7436.297018 -19303.279035   -607.359348
PG30     74.444967  25368.901379  -7257.227008   -435.283989
PG31 -10104.455292 -23191.549850  -7587.774906   -227.694689
PG32  -3524.113928 -16315.886711  20903.489907   -610.443682
PR01  25357.181113  -1708.052763  -2244.769970     76.618686
PR02  19117.100473  -8260.966540  14729.049249    -22.427716
PR03   1844.023170 -10984.983960  22993.867387     94.188597
PR04 -15827.593802  -7483.128805  18591.319160    222.529862
PR05 -25180.369769   -179.196734   4174.521795    126.579505
PR07  -1008.387018  10910.325627 -22992.959917     75.313444
PR08  16088.772382   7328.247575 -18308.250429    -74.342825
PR09 -13399.793814  19746.452506  -8887.101874    168.828195
PR11   3826.320568  14902.492719  20345.063794     35.015802
PR12  13261.956029  -4138.490604  21405.154017     36.508816
PR13  14049.815578 -18159.688260  11084.548783    -44.149813
PR14   6215.073980 -23322.129360  -8275.443842     26.019901
PR15  -4712.361856 -13767.121511 -20940.078751     82.381214
PR16 -13021.164704   3961.377843 -21565.000445     23.099767
PR17  -6258.179110 -20414.223261 -13919.472785     59.477810
PR18 -14884.895945 -20653.967638   2038.439088    126.336022
PR19 -15898.433976 -12129.736172  15841.407246   -265.023850
PR20  -7331.256893   7748.136447  23179.413521   -107.970492
PR21   6356.366643  20568.568482  13700.979662    -75.350292
PR22  14638.483329  20654.577107  -3023.324596    107.057437
PR24   6980.879984  -8855.394499 -22859.628605    -43.090776
PE02  16288.869684 -22881.505596  -9319.538129    101.688299
PE03   8473.933432 -14939.774769  24106.400564    -92.432465
PE04  13550.004828  18341.369255 -18863.014701   -322.425740
PE05  25224.810182  -2883.462041  15220.859068   4718.058067
PE07 -27225.082714 -11207.454543   3037.569814   -102.674291
PE08 -12885.248533 -18303.082370  19366.088345   -220.602782
PE09  27205.547584  11241.553689  -3156.383520   -328.572680
PE10  13047.428312  23516.940705 -12363.672312   -600.349705
PE11  16267.732622  14293.907698 -20174.412719   3257.580881
PE12   8184.270577  28207.315795  -3575.863736   -897.369411
PE13 -16104.281875 -15013.079292  19799.221725    -20.121145
PE14  30979.426640   4732.854397  -7706.489520 999999.999999
PE15  -7899.943114 -28371.485780   3050.123076    -84.629613
PE18 -22706.306083  -4903.817225   4493.642646 999999.999999
PE19 -10896.186912  13717.335279 -23852.182485   -655.377029
PE21 -24692.581519  13834.158256  -8686.963504   -577.958193
PE25  24716.963875 -13538.753793   9031.023596      0.612790
PE26 -14728.395702   7647.699202  24519.175953    362.714747
PE27 -19071.316664  -3726.145858 -22339.228623   -269.494739
PE30  -2030.913893 -19060.526060 -22567.842870   -890.007678
PE31   2256.887834  18903.169837  22666.569902    -15.527606
PE33  -5183.944878  24561.204013  15693.195449      7.265144
PE34   4777.107588 -24917.502411 -15245.268384    -93.472270
PE36  14760.175457  -6916.121717 -24701.246630   -183.034930
EOF
